start=new Date('2023-05-24T00:00:00.000Z').valueOf();
sats=[{"LAUNCH_DATE":"2021-04-07","TLE_LINE1":"1 48097U 21027F   23143.05245460  .00027988  00000-0  18909-2 0  9992","RA_OF_ASC_NODE":"57.9231","CENTER_NAME":"EARTH","TLE_LINE2":"2 48097  53.0554  57.9231 0001292  63.9694 296.1428 15.06390102118717","APOAPSIS":"548.139","SITE":"AFETR","GP_ID":"232403818","BSTAR":"0.00189090000000","MEAN_MOTION_DDOT":"0.0000000000000","ELEMENT_SET_NO":"999","EPOCH":"2023-05-23T01:15:32.077440","TIME_SYSTEM":"UTC","REV_AT_EPOCH":"11871","OBJECT_ID":"2021-027F","INCLINATION":"53.0554","DECAY_DATE":null,"MEAN_ELEMENT_THEORY":"SGP4","REF_FRAME":"TEME","MEAN_MOTION_DOT":"0.00027988","MEAN_MOTION":"15.06390102","FILE":"3915766","ARG_OF_PERICENTER":"63.9694","MEAN_ANOMALY":"296.1428","SEMIMAJOR_AXIS":"6925.379","PERIAPSIS":"546.349","OBJECT_NAME":"STARLINK-2418","ECCENTRICITY":"0.00012920","CLASSIFICATION_TYPE":"U","COUNTRY_CODE":"US","RCS_SIZE":"LARGE","OBJECT_TYPE":"PAYLOAD","NORAD_CAT_ID":"48097","PERIOD":"95.593","EPHEMERIS_TYPE":"0"},{"FILE":"3915766","REF_FRAME":"TEME","MEAN_MOTION_DOT":"0.00020472","MEAN_MOTION":"15.06395931","MEAN_ELEMENT_THEORY":"SGP4","DECAY_DATE":null,"MEAN_ANOMALY":"227.8290","ARG_OF_PERICENTER":"132.2797","ECCENTRICITY":"0.00011590","OBJECT_NAME":"STARLINK-2421","PERIAPSIS":"546.423","SEMIMAJOR_AXIS":"6925.361","EPHEMERIS_TYPE":"0","PERIOD":"95.592","NORAD_CAT_ID":"48098","OBJECT_TYPE":"PAYLOAD","COUNTRY_CODE":"US","RCS_SIZE":"LARGE","CLASSIFICATION_TYPE":"U","TLE_LINE1":"1 48098U 21027G   23143.09575174  .00020472  00000-0  13894-2 0  9994","LAUNCH_DATE":"2021-04-07","SITE":"AFETR","APOAPSIS":"548.029","TLE_LINE2":"2 48098  53.0549  67.7347 0001159 132.2797 227.8290 15.06395931118572","CENTER_NAME":"EARTH","RA_OF_ASC_NODE":"67.7347","MEAN_MOTION_DDOT":"0.0000000000000","BSTAR":"0.00138940000000","GP_ID":"232404067","OBJECT_ID":"2021-027G","INCLINATION":"53.0549","REV_AT_EPOCH":"11857","TIME_SYSTEM":"UTC","EPOCH":"2023-05-23T02:17:52.950336","ELEMENT_SET_NO":"999"},{"FILE":"3915766","REF_FRAME":"TEME","MEAN_MOTION_DOT":"0.00012450","MEAN_MOTION":"15.06399292","DECAY_DATE":null,"MEAN_ELEMENT_THEORY":"SGP4","MEAN_ANOMALY":"238.4216","ARG_OF_PERICENTER":"121.6877","ECCENTRICITY":"0.00010640","OBJECT_NAME":"STARLINK-2428","PERIAPSIS":"546.479","SEMIMAJOR_AXIS":"6925.351","EPHEMERIS_TYPE":"0","PERIOD":"95.592","NORAD_CAT_ID":"48099","OBJECT_TYPE":"PAYLOAD","COUNTRY_CODE":"US","RCS_SIZE":"LARGE","CLASSIFICATION_TYPE":"U","TLE_LINE1":"1 48099U 21027H   23143.08375921  .00012450  00000-0  85321-3 0  9994","LAUNCH_DATE":"2021-04-07","APOAPSIS":"547.953","SITE":"AFETR","TLE_LINE2":"2 48099  53.0545  77.7803 0001064 121.6877 238.4216 15.06399292118438","CENTER_NAME":"EARTH","RA_OF_ASC_NODE":"77.7803","MEAN_MOTION_DDOT":"0.0000000000000","BSTAR":"0.00085321000000","GP_ID":"232402316","OBJECT_ID":"2021-027H","REV_AT_EPOCH":"11843","INCLINATION":"53.0545","TIME_SYSTEM":"UTC","EPOCH":"2023-05-23T02:00:36.795744","ELEMENT_SET_NO":"999"},{"MEAN_ANOMALY":"242.3760","ARG_OF_PERICENTER":"117.7353","FILE":"3915766","MEAN_MOTION_DOT":"0.00020102","MEAN_MOTION":"15.06401121","REF_FRAME":"TEME","DECAY_DATE":null,"MEAN_ELEMENT_THEORY":"SGP4","EPHEMERIS_TYPE":"0","PERIOD":"95.592","NORAD_CAT_ID":"48100","CLASSIFICATION_TYPE":"U","COUNTRY_CODE":"US","OBJECT_TYPE":"PAYLOAD","RCS_SIZE":"LARGE","ECCENTRICITY":"0.00012210","PERIAPSIS":"546.365","OBJECT_NAME":"STARLINK-2430","SEMIMAJOR_AXIS":"6925.345","SITE":"AFETR","APOAPSIS":"548.056","CENTER_NAME":"EARTH","TLE_LINE2":"2 48100  53.0554  57.3656 0001221 117.7353 242.3760 15.06401121118737","RA_OF_ASC_NODE":"57.3656","TLE_LINE1":"1 48100U 21027J   23143.17776620  .00020102  00000-0  13645-2 0  9990","LAUNCH_DATE":"2021-04-07","OBJECT_ID":"2021-027J","REV_AT_EPOCH":"11873","INCLINATION":"53.0554","TIME_SYSTEM":"UTC","ELEMENT_SET_NO":"999","EPOCH":"2023-05-23T04:15:58.999680","MEAN_MOTION_DDOT":"0.0000000000000","GP_ID":"232402566","BSTAR":"0.00136450000000"},{"ELEMENT_SET_NO":"999","EPOCH":"2023-05-23T02:16:31.491552","TIME_SYSTEM":"UTC","OBJECT_ID":"2021-027K","INCLINATION":"53.0545","REV_AT_EPOCH":"11858","GP_ID":"232403318","BSTAR":"0.00131830000000","MEAN_MOTION_DDOT":"0.0000000000000","RA_OF_ASC_NODE":"67.7361","CENTER_NAME":"EARTH","TLE_LINE2":"2 48101  53.0545  67.7361 0001334 123.9004 236.2112 15.06394150118582","SITE":"AFETR","APOAPSIS":"548.155","LAUNCH_DATE":"2021-04-07","TLE_LINE1":"1 48101U 21027K   23143.09480893  .00019406  00000-0  13183-2 0  9998","CLASSIFICATION_TYPE":"U","OBJECT_TYPE":"PAYLOAD","COUNTRY_CODE":"US","RCS_SIZE":"LARGE","PERIOD":"95.593","NORAD_CAT_ID":"48101","EPHEMERIS_TYPE":"0","SEMIMAJOR_AXIS":"6925.366","PERIAPSIS":"546.308","OBJECT_NAME":"STARLINK-2436","ECCENTRICITY":"0.00013340","ARG_OF_PERICENTER":"123.9004","MEAN_ANOMALY":"236.2112","DECAY_DATE":null,"MEAN_ELEMENT_THEORY":"SGP4","MEAN_MOTION_DOT":"0.00019406","REF_FRAME":"TEME","MEAN_MOTION":"15.06394150","FILE":"3915766"},{"RA_OF_ASC_NODE":"57.8445","APOAPSIS":"548.065","SITE":"AFETR","CENTER_NAME":"EARTH","TLE_LINE2":"2 48102  53.0549  57.8445 0001221 112.9386 247.1732 15.06397947118717","LAUNCH_DATE":"2021-04-07","TLE_LINE1":"1 48102U 21027L   23143.07088132  .00029479  00000-0  19898-2 0  9997","TIME_SYSTEM":"UTC","ELEMENT_SET_NO":"999","EPOCH":"2023-05-23T01:42:04.146048","OBJECT_ID":"2021-027L","INCLINATION":"53.0549","REV_AT_EPOCH":"11871","GP_ID":"232403567","BSTAR":"0.00198980000000","MEAN_MOTION_DDOT":"0.0000000000000","ARG_OF_PERICENTER":"112.9386","MEAN_ANOMALY":"247.1732","MEAN_MOTION":"15.06397947","MEAN_MOTION_DOT":"0.00029479","REF_FRAME":"TEME","DECAY_DATE":null,"MEAN_ELEMENT_THEORY":"SGP4","FILE":"3915766","CLASSIFICATION_TYPE":"U","COUNTRY_CODE":"US","OBJECT_TYPE":"PAYLOAD","RCS_SIZE":"LARGE","EPHEMERIS_TYPE":"0","PERIOD":"95.592","NORAD_CAT_ID":"48102","SEMIMAJOR_AXIS":"6925.355","ECCENTRICITY":"0.00012210","PERIAPSIS":"546.374","OBJECT_NAME":"STARLINK-2437"},{"SITE":"AFETR","APOAPSIS":"526.813","TLE_LINE2":"2 48103  53.0539  54.7631 0006434  62.1086 298.0558 15.14541285118754","CENTER_NAME":"EARTH","RA_OF_ASC_NODE":"54.7631","TLE_LINE1":"1 48103U 21027M   23143.03507792  .00046803  00000-0  25085-2 0  9997","LAUNCH_DATE":"2021-04-07","OBJECT_ID":"2021-027M","INCLINATION":"53.0539","REV_AT_EPOCH":"11875","TIME_SYSTEM":"UTC","EPOCH":"2023-05-23T00:50:30.732288","ELEMENT_SET_NO":"999","MEAN_MOTION_DDOT":"0.0000000000000","BSTAR":"0.00250850000000","GP_ID":"232402817","MEAN_ANOMALY":"298.0558","ARG_OF_PERICENTER":"62.1086","FILE":"3915766","MEAN_MOTION_DOT":"0.00046803","MEAN_MOTION":"15.14541285","REF_FRAME":"TEME","DECAY_DATE":null,"MEAN_ELEMENT_THEORY":"SGP4","EPHEMERIS_TYPE":"0","PERIOD":"95.078","NORAD_CAT_ID":"48103","OBJECT_TYPE":"PAYLOAD","COUNTRY_CODE":"US","RCS_SIZE":"LARGE","CLASSIFICATION_TYPE":"U","ECCENTRICITY":"0.00064340","OBJECT_NAME":"STARLINK-2438","PERIAPSIS":"517.934","SEMIMAJOR_AXIS":"6900.509"},{"TIME_SYSTEM":"UTC","ELEMENT_SET_NO":"999","EPOCH":"2023-05-23T03:46:07.743648","OBJECT_ID":"2021-027N","INCLINATION":"53.0540","REV_AT_EPOCH":"11866","GP_ID":"232403067","BSTAR":"0.00124710000000","MEAN_MOTION_DDOT":"0.0000000000000","RA_OF_ASC_NODE":"62.4595","APOAPSIS":"548.102","SITE":"AFETR","CENTER_NAME":"EARTH","TLE_LINE2":"2 48104  53.0540  62.4595 0001377  98.0102 262.1043 15.06421140118669","LAUNCH_DATE":"2021-04-07","TLE_LINE1":"1 48104U 21027N   23143.15703407  .00018353  00000-0  12471-2 0  9996","CLASSIFICATION_TYPE":"U","COUNTRY_CODE":"US","RCS_SIZE":"LARGE","OBJECT_TYPE":"PAYLOAD","EPHEMERIS_TYPE":"0","NORAD_CAT_ID":"48104","PERIOD":"95.591","SEMIMAJOR_AXIS":"6925.284","ECCENTRICITY":"0.00013770","PERIAPSIS":"546.195","OBJECT_NAME":"STARLINK-2439","ARG_OF_PERICENTER":"98.0102","MEAN_ANOMALY":"262.1043","MEAN_MOTION_DOT":"0.00018353","MEAN_MOTION":"15.06421140","REF_FRAME":"TEME","DECAY_DATE":null,"MEAN_ELEMENT_THEORY":"SGP4","FILE":"3915766"},{"MEAN_MOTION_DOT":"0.00010586","REF_FRAME":"TEME","MEAN_MOTION":"15.06400910","DECAY_DATE":null,"MEAN_ELEMENT_THEORY":"SGP4","FILE":"3915766","ARG_OF_PERICENTER":"124.0289","MEAN_ANOMALY":"236.0777","SEMIMAJOR_AXIS":"6925.346","ECCENTRICITY":"0.00008070","OBJECT_NAME":"STARLINK-2440","PERIAPSIS":"546.652","COUNTRY_CODE":"US","RCS_SIZE":"LARGE","OBJECT_TYPE":"PAYLOAD","CLASSIFICATION_TYPE":"U","EPHEMERIS_TYPE":"0","PERIOD":"95.592","NORAD_CAT_ID":"48105","LAUNCH_DATE":"2021-04-07","TLE_LINE1":"1 48105U 21027P   23143.79425874  .00010586  00000-0  72844-3 0  9997","RA_OF_ASC_NODE":"4.5955","SITE":"AFETR","APOAPSIS":"547.770","TLE_LINE2":"2 48105  53.0547   4.5955 0000807 124.0289 236.0777 15.06400910119529","CENTER_NAME":"EARTH","BSTAR":"0.00072844000000","GP_ID":"232403819","MEAN_MOTION_DDOT":"0.0000000000000","TIME_SYSTEM":"UTC","EPOCH":"2023-05-23T19:03:43.955136","ELEMENT_SET_NO":"999","OBJECT_ID":"2021-027P","INCLINATION":"53.0547","REV_AT_EPOCH":"11952"},{"OBJECT_NAME":"STARLINK-2442","PERIAPSIS":"546.331","ECCENTRICITY":"0.00012830","SEMIMAJOR_AXIS":"6925.355","NORAD_CAT_ID":"48106","PERIOD":"95.592","EPHEMERIS_TYPE":"0","OBJECT_TYPE":"PAYLOAD","COUNTRY_CODE":"US","RCS_SIZE":"LARGE","CLASSIFICATION_TYPE":"U","FILE":"3915766","DECAY_DATE":null,"MEAN_ELEMENT_THEORY":"SGP4","REF_FRAME":"TEME","MEAN_MOTION_DOT":"0.00022742","MEAN_MOTION":"15.06398011","MEAN_ANOMALY":"300.8667","ARG_OF_PERICENTER":"59.2449","MEAN_MOTION_DDOT":"0.0000000000000","BSTAR":"0.00154080000000","GP_ID":"232404068","OBJECT_ID":"2021-027Q","INCLINATION":"53.0554","REV_AT_EPOCH":"11873","EPOCH":"2023-05-23T04:21:18.616608","ELEMENT_SET_NO":"999","TIME_SYSTEM":"UTC","TLE_LINE1":"1 48106U 21027Q   23143.18146547  .00022742  00000-0  15408-2 0  9997","LAUNCH_DATE":"2021-04-07","TLE_LINE2":"2 48106  53.0554  57.3541 0001283  59.2449 300.8667 15.06398011118739","CENTER_NAME":"EARTH","SITE":"AFETR","APOAPSIS":"548.108","RA_OF_ASC_NODE":"57.3541"}];
